STARLINK-31878          
1 60031U 24111R   26068.31548242 -.00001171  00000+0 -27419-4 0  9998
2 60031  53.1621  25.5912 0001511  87.9498 272.1676 15.30188515 99452
TOMORROW-S1             
1 60479U 24149M   26068.72470524  .00008620  00000+0  28856-3 0  9996
2 60479  97.3791 149.6044 0001819 207.2040 152.9106 15.31198362 86867
